LEMUR-2-AMANDA-SVANTE   
1 48269U 21034B   26068.77637527  .00030872  00000+0  11134-2 0  9996
2 48269  97.5829 144.8625 0002703 205.4721 154.6385 15.28469003265849
STARLINK-35834          
1 66570U 25268P   26068.15997786  .00030789  00000+0  11226-2 0  9991
2 66570  42.9969 350.5009 0000279 237.3828 122.6996 15.27613968 17874
